start=new Date('2023-04-01T00:00:00.000Z').valueOf();
sats=[{"ARG_OF_PERICENTER":"228.2910","TLE_LINE2":"2 55608  42.9997  71.5169 0002430 228.2910 131.7742 15.47907800  7472","EPOCH":"2023-03-31T19:04:25.802976","ELEMENT_SET_NO":"999","TIME_SYSTEM":"UTC","ECCENTRICITY":"0.00024300","GP_ID":"229207336","MEAN_ELEMENT_THEORY":"SGP4","MEAN_MOTION":"15.47907800","RA_OF_ASC_NODE":"71.5169","SITE":"AFETR","REF_FRAME":"TEME","TLE_LINE1":"1 55608U 23020AR  23090.79474309 -.00178769  00000-0 -34191-2 0  9998","CLASSIFICATION_TYPE":"U","PERIOD":"93.029","RCS_SIZE":"LARGE","PERIAPSIS":"421.197","OBJECT_TYPE":"PAYLOAD","REV_AT_EPOCH":"747","SEMIMAJOR_AXIS":"6800.984","CENTER_NAME":"EARTH","MEAN_MOTION_DOT":"-0.00178769","MEAN_MOTION_DDOT":"0.0000000000000","BSTAR":"-0.00341910000000","FILE":"3876571","NORAD_CAT_ID":"55608","APOAPSIS":"424.502","OBJECT_ID":"2023-020AR","EPHEMERIS_TYPE":"0","INCLINATION":"42.9997","MEAN_ANOMALY":"131.7742","OBJECT_NAME":"STARLINK-5726","LAUNCH_DATE":"2023-02-12","COUNTRY_CODE":"US","DECAY_DATE":null},{"TIME_SYSTEM":"UTC","EPOCH":"2023-03-31T19:05:36.505824","ELEMENT_SET_NO":"999","TLE_LINE2":"2 55609  43.0013  71.5225 0000720 183.5153 176.5701 15.47698776  7470","ARG_OF_PERICENTER":"183.5153","MEAN_MOTION":"15.47698776","MEAN_ELEMENT_THEORY":"SGP4","ECCENTRICITY":"0.00007200","GP_ID":"229207144","TLE_LINE1":"1 55609U 23020AS  23090.79556141 -.00140507  00000-0 -26930-2 0  9995","REF_FRAME":"TEME","SITE":"AFETR","RA_OF_ASC_NODE":"71.5225","RCS_SIZE":"LARGE","PERIOD":"93.041","CLASSIFICATION_TYPE":"U","REV_AT_EPOCH":"747","OBJECT_TYPE":"PAYLOAD","PERIAPSIS":"422.972","FILE":"3876571","BSTAR":"-0.00269300000000","MEAN_MOTION_DDOT":"0.0000000000000","MEAN_MOTION_DOT":"-0.00140507","CENTER_NAME":"EARTH","SEMIMAJOR_AXIS":"6801.597","APOAPSIS":"423.951","NORAD_CAT_ID":"55609","DECAY_DATE":null,"COUNTRY_CODE":"US","LAUNCH_DATE":"2023-02-12","MEAN_ANOMALY":"176.5701","INCLINATION":"43.0013","OBJECT_NAME":"STARLINK-5719","EPHEMERIS_TYPE":"0","OBJECT_ID":"2023-020AS"},{"SEMIMAJOR_AXIS":"6799.710","CENTER_NAME":"EARTH","MEAN_MOTION_DOT":"-0.00070402","MEAN_MOTION_DDOT":"0.0000000000000","BSTAR":"-0.00130420000000","FILE":"3876571","PERIAPSIS":"420.075","OBJECT_TYPE":"PAYLOAD","REV_AT_EPOCH":"747","OBJECT_ID":"2023-020AT","INCLINATION":"43.0010","OBJECT_NAME":"STARLINK-5722","MEAN_ANOMALY":"96.2490","EPHEMERIS_TYPE":"0","COUNTRY_CODE":"US","LAUNCH_DATE":"2023-02-12","DECAY_DATE":null,"NORAD_CAT_ID":"55610","APOAPSIS":"423.074","GP_ID":"229207328","ECCENTRICITY":"0.00022050","MEAN_ELEMENT_THEORY":"SGP4","MEAN_MOTION":"15.48343115","TLE_LINE2":"2 55610  43.0010  71.5117 0002205 263.8118  96.2490 15.48343115  7470","ARG_OF_PERICENTER":"263.8118","EPOCH":"2023-03-31T19:03:33.429888","ELEMENT_SET_NO":"999","TIME_SYSTEM":"UTC","CLASSIFICATION_TYPE":"U","PERIOD":"93.003","RCS_SIZE":"LARGE","RA_OF_ASC_NODE":"71.5117","SITE":"AFETR","REF_FRAME":"TEME","TLE_LINE1":"1 55610U 23020AT  23090.79413692 -.00070402  00000-0 -13042-2 0  9996"},{"MEAN_MOTION_DOT":"-0.00027674","CENTER_NAME":"EARTH","SEMIMAJOR_AXIS":"6798.696","FILE":"3876304","BSTAR":"-0.00050003000000","MEAN_MOTION_DDOT":"0.0000000000000","PERIAPSIS":"419.594","REV_AT_EPOCH":"740","OBJECT_TYPE":"PAYLOAD","INCLINATION":"43.0009","OBJECT_NAME":"STARLINK-5730","MEAN_ANOMALY":"83.3072","EPHEMERIS_TYPE":"0","OBJECT_ID":"2023-020AU","DECAY_DATE":null,"LAUNCH_DATE":"2023-02-12","COUNTRY_CODE":"US","APOAPSIS":"421.528","NORAD_CAT_ID":"55611","MEAN_ELEMENT_THEORY":"SGP4","GP_ID":"229200458","ECCENTRICITY":"0.00014220","MEAN_MOTION":"15.48689444","TLE_LINE2":"2 55611  43.0009  74.1437 0001422 276.7626  83.3072 15.48689444  7404","ARG_OF_PERICENTER":"276.7626","TIME_SYSTEM":"UTC","EPOCH":"2023-03-31T08:13:13.518912","ELEMENT_SET_NO":"999","PERIOD":"92.982","CLASSIFICATION_TYPE":"U","RCS_SIZE":"LARGE","SITE":"AFETR","RA_OF_ASC_NODE":"74.1437","TLE_LINE1":"1 55611U 23020AU  23090.34251758 -.00027674  00000-0 -50003-3 0  9993","REF_FRAME":"TEME"},{"MEAN_MOTION":"15.48304531","ECCENTRICITY":"0.00026250","GP_ID":"229207330","MEAN_ELEMENT_THEORY":"SGP4","ELEMENT_SET_NO":"999","EPOCH":"2023-03-31T19:02:56.202720","TIME_SYSTEM":"UTC","TLE_LINE2":"2 55612  42.9997  71.5079 0002625 259.1149 100.9415 15.48304531  7478","ARG_OF_PERICENTER":"259.1149","RCS_SIZE":"LARGE","CLASSIFICATION_TYPE":"U","PERIOD":"93.005","REF_FRAME":"TEME","TLE_LINE1":"1 55612U 23020AV  23090.79370605 -.00190211  00000-0 -35932-2 0  9997","RA_OF_ASC_NODE":"71.5079","SITE":"AFETR","MEAN_MOTION_DDOT":"0.0000000000000","BSTAR":"-0.00359320000000","FILE":"3876571","SEMIMAJOR_AXIS":"6799.823","CENTER_NAME":"EARTH","MEAN_MOTION_DOT":"-0.00190211","OBJECT_TYPE":"PAYLOAD","REV_AT_EPOCH":"747","PERIAPSIS":"419.903","LAUNCH_DATE":"2023-02-12","COUNTRY_CODE":"US","DECAY_DATE":null,"OBJECT_ID":"2023-020AV","OBJECT_NAME":"STARLINK-5734","MEAN_ANOMALY":"100.9415","INCLINATION":"42.9997","EPHEMERIS_TYPE":"0","NORAD_CAT_ID":"55612","APOAPSIS":"423.473"},{"NORAD_CAT_ID":"55613","APOAPSIS":"424.308","OBJECT_ID":"2023-020AW","EPHEMERIS_TYPE":"0","INCLINATION":"43.0002","OBJECT_NAME":"STARLINK-5715","MEAN_ANOMALY":"103.3727","COUNTRY_CODE":"US","LAUNCH_DATE":"2023-02-12","DECAY_DATE":null,"PERIAPSIS":"421.135","OBJECT_TYPE":"PAYLOAD","REV_AT_EPOCH":"747","SEMIMAJOR_AXIS":"6800.856","CENTER_NAME":"EARTH","MEAN_MOTION_DOT":"-0.00174565","MEAN_MOTION_DDOT":"0.0000000000000","BSTAR":"-0.00333170000000","FILE":"3876577","RA_OF_ASC_NODE":"71.5140","SITE":"AFETR","REF_FRAME":"TEME","TLE_LINE1":"1 55613U 23020AW  23090.79454954 -.00174565  00000-0 -33317-2 0  9997","CLASSIFICATION_TYPE":"U","PERIOD":"93.026","RCS_SIZE":"LARGE","TLE_LINE2":"2 55613  43.0002  71.5140 0002333 256.6872 103.3727 15.47951562  7472","ARG_OF_PERICENTER":"256.6872","EPOCH":"2023-03-31T19:04:09.080256","ELEMENT_SET_NO":"999","TIME_SYSTEM":"UTC","ECCENTRICITY":"0.00023330","GP_ID":"229207865","MEAN_ELEMENT_THEORY":"SGP4","MEAN_MOTION":"15.47951562"},{"MEAN_ELEMENT_THEORY":"SGP4","ECCENTRICITY":"0.00012960","GP_ID":"229207397","MEAN_MOTION":"15.71384599","TLE_LINE2":"2 55614  43.0002  68.2654 0001296 268.9920  91.0800 15.71384599  7510","ARG_OF_PERICENTER":"268.9920","TIME_SYSTEM":"UTC","EPOCH":"2023-03-31T19:57:44.148672","ELEMENT_SET_NO":"999","PERIOD":"91.639","CLASSIFICATION_TYPE":"U","RCS_SIZE":"LARGE","SITE":"AFETR","RA_OF_ASC_NODE":"68.2654","TLE_LINE1":"1 55614U 23020AX  23090.83176098  .00080510  00000-0  61073-3 0  9998","REF_FRAME":"TEME","MEAN_MOTION_DOT":"0.00080510","CENTER_NAME":"EARTH","SEMIMAJOR_AXIS":"6733.076","FILE":"3876606","BSTAR":"0.00061073000000","MEAN_MOTION_DDOT":"0.0000000000000","PERIAPSIS":"354.068","REV_AT_EPOCH":"751","OBJECT_TYPE":"PAYLOAD","MEAN_ANOMALY":"91.0800","OBJECT_NAME":"STARLINK-5714","INCLINATION":"43.0002","EPHEMERIS_TYPE":"0","OBJECT_ID":"2023-020AX","DECAY_DATE":null,"LAUNCH_DATE":"2023-02-12","COUNTRY_CODE":"US","APOAPSIS":"355.814","NORAD_CAT_ID":"55614"},{"RCS_SIZE":"LARGE","CLASSIFICATION_TYPE":"U","PERIOD":"92.995","REF_FRAME":"TEME","TLE_LINE1":"1 55615U 23020AY  23090.79373074 -.00053525  00000-0 -98331-3 0  9992","RA_OF_ASC_NODE":"71.5088","SITE":"AFETR","MEAN_MOTION":"15.48476036","ECCENTRICITY":"0.00022760","GP_ID":"229207857","MEAN_ELEMENT_THEORY":"SGP4","EPOCH":"2023-03-31T19:02:58.335936","ELEMENT_SET_NO":"999","TIME_SYSTEM":"UTC","ARG_OF_PERICENTER":"264.4635","TLE_LINE2":"2 55615  43.0011  71.5088 0002276 264.4635  95.5965 15.48476036  7470","COUNTRY_CODE":"US","LAUNCH_DATE":"2023-02-12","DECAY_DATE":null,"OBJECT_ID":"2023-020AY","OBJECT_NAME":"STARLINK-5712","INCLINATION":"43.0011","MEAN_ANOMALY":"95.5965","EPHEMERIS_TYPE":"0","NORAD_CAT_ID":"55615","APOAPSIS":"422.733","MEAN_MOTION_DDOT":"0.0000000000000","BSTAR":"-0.00098331000000","FILE":"3876577","SEMIMAJOR_AXIS":"6799.321","CENTER_NAME":"EARTH","MEAN_MOTION_DOT":"-0.00053525","OBJECT_TYPE":"PAYLOAD","REV_AT_EPOCH":"747","PERIAPSIS":"419.638"},{"TLE_LINE1":"1 55616U 23020AZ  23089.82563096  .00000081  00000-0  75149-5 0  9991","REF_FRAME":"TEME","SITE":"AFETR","RA_OF_ASC_NODE":"77.1447","RCS_SIZE":"LARGE","PERIOD":"92.968","CLASSIFICATION_TYPE":"U","TIME_SYSTEM":"UTC","ELEMENT_SET_NO":"999","EPOCH":"2023-03-30T19:48:54.514944","TLE_LINE2":"2 55616  43.0011  77.1447 0001172 257.3198 102.7530 15.48912521  7328","ARG_OF_PERICENTER":"257.3198","MEAN_MOTION":"15.48912521","MEAN_ELEMENT_THEORY":"SGP4","ECCENTRICITY":"0.00011720","GP_ID":"229159948","APOAPSIS":"420.705","NORAD_CAT_ID":"55616","DECAY_DATE":null,"COUNTRY_CODE":"US","LAUNCH_DATE":"2023-02-12","OBJECT_NAME":"STARLINK-5710","EPHEMERIS_TYPE":"0","INCLINATION":"43.0011","MEAN_ANOMALY":"102.7530","OBJECT_ID":"2023-020AZ","REV_AT_EPOCH":"732","OBJECT_TYPE":"PAYLOAD","PERIAPSIS":"419.111","FILE":"3875640","BSTAR":"0.00000751490000","MEAN_MOTION_DDOT":"0.0000000000000","MEAN_MOTION_DOT":"0.00000081","CENTER_NAME":"EARTH","SEMIMAJOR_AXIS":"6798.043"},{"FILE":"3876577","BSTAR":"-0.00340050000000","MEAN_MOTION_DDOT":"0.0000000000000","MEAN_MOTION_DOT":"-0.00181056","CENTER_NAME":"EARTH","SEMIMAJOR_AXIS":"6799.444","REV_AT_EPOCH":"747","OBJECT_TYPE":"PAYLOAD","PERIAPSIS":"419.564","DECAY_DATE":null,"LAUNCH_DATE":"2023-02-12","COUNTRY_CODE":"US","INCLINATION":"42.9994","OBJECT_NAME":"STARLINK-5721","EPHEMERIS_TYPE":"0","MEAN_ANOMALY":"90.4946","OBJECT_ID":"2023-020BA","APOAPSIS":"423.053","NORAD_CAT_ID":"55617","MEAN_MOTION":"15.48433982","MEAN_ELEMENT_THEORY":"SGP4","GP_ID":"229207862","ECCENTRICITY":"0.00025660","TIME_SYSTEM":"UTC","EPOCH":"2023-03-31T19:02:24.637344","ELEMENT_SET_NO":"999","TLE_LINE2":"2 55617  42.9994  71.5053 0002566 269.5619  90.4946 15.48433982  7478","ARG_OF_PERICENTER":"269.5619","RCS_SIZE":"LARGE","PERIOD":"92.997","CLASSIFICATION_TYPE":"U","TLE_LINE1":"1 55617U 23020BA  23090.79334071 -.00181056  00000-0 -34005-2 0  9996","REF_FRAME":"TEME","SITE":"AFETR","RA_OF_ASC_NODE":"71.5053"}];
